FLOCK 4BE-27            
1 60513U 24149AX  26068.75339182  .00011439  00000+0  36576-3 0  9992
2 60513  97.3862 150.6783 0002732 305.8980  54.2008 15.32593322 86906
STARLINK-34694          
1 66189U 25243N   26068.75552243  .00032934  00000+0  11196-2 0  9991
2 66189  53.1598 244.9627 0000760  22.0027 338.1006 15.30188707 20668
